CBERS 4A                
1 44883U 19093E   26157.95928753  .00001467  00000+0  19308-3 0  9999
2 44883  97.7495 225.5225 0001270 154.8393 205.2883 14.81622780349560
WEILAI 1R               
1 44884U 19093F   26157.91902670  .00004339  00000+0  34762-3 0  9998
2 44884  97.7844 247.7908 0017851  66.8371 293.4731 15.00554061350889
FLORIPASAT-1            
1 44885U 19093G   26157.31310279  .00007388  00000+0  54134-3 0  9993
2 44885  97.7924 251.4661 0013751 104.7159 255.5592 15.03766890351016
SHUNTIAN                
1 44886U 19093H   26157.90161634  .00002306  00000+0  21533-3 0  9990
2 44886  97.7999 246.1150 0012958  98.6921 261.5768 14.95103572350641
ELEKTRO-L 3             
1 44903U 19095A   26157.93283021 -.00000083  00000+0  00000+0 0  9993
2 44903   0.2303  81.1560 0001498 349.9046 236.0506  1.00272728 23600
GONETS-M 14             
1 44905U 19096A   26157.90540178  .00000068  00000+0  41785-3 0  9993
2 44905  82.5233  91.0146 0013049 170.3269 189.8065 12.42869577292408
GONETS-M 15             
1 44906U 19096B   26157.93481250  .00000054  00000+0  31921-3 0  9998
2 44906  82.5252  91.4564 0014457 194.4387 165.6282 12.42871023292378
GONETS-M 16             
1 44907U 19096C   26157.88070669  .00000015  00000+0  35260-4 0  9999
2 44907  82.5199  90.4471 0009624 239.5482 120.4648 12.42891317292353
RS-44 & BREEZE-KM R/B   
1 44909U 19096E   26157.76340290  .00000011  00000+0 -32385-5 0  9991
2 44909  82.5218 346.6331 0217706 168.4833 192.1367 12.79748548301015
JILIN-1 KUANFU 01       
1 45016U 20003A   26157.95266144  .00003922  00000+0  24065-3 0  9994
2 45016  97.5025 232.1081 0009145 346.7396  13.3592 15.10668270353785
XINGYUN-2 01            
1 45602U 20028A   26157.94893572  .00002541  00000+0  15264-3 0  9999
2 45602  97.4872 150.5531 0007422 233.1386 126.9165 15.11764053333290
XINGYUN-2 02            
1 45603U 20028B   26157.92575012  .00002746  00000+0  16584-3 0  9997
2 45603  97.5077 164.0981 0009549 315.1221  44.9236 15.11497538333287
HAIYANG-1D              
1 45721U 20036A   26157.92668556  .00000213  00000+0  91227-4 0  9998
2 45721  98.4557  99.8302 0002792 151.9731 208.1605 14.34170175313504
M2 PATHFINDER           
1 45727U 20037E   26157.47304527  .00003381  00000+0  24487-3 0  9992
2 45727  97.8157 348.5839 0011491 183.0917 177.0240 15.04629336323883
GAOFEN DUOMO (GFDM)     
1 45856U 20042A   26157.97690078  .00000441  00000+0  69676-4 0  9999
2 45856  97.7745 218.2339 0012366 103.4002 256.8588 14.76864711319500
ZIYUAN 3-03 (ZY 3-03)   
1 45939U 20051A   26157.92432317  .00005689  00000+0  25614-3 0  9998
2 45939  97.2832 225.9814 0004285   2.3148 357.8108 15.21450922325789
NEMO-HD                 
1 46277U 20061F   26157.95793881  .00012021  00000+0  26209-3 0  9993
2 46277  97.1920 220.0155 0002631  92.1225 268.0325 15.44386635320404
NAPA-1                  
1 46320U 20061BA  26157.94737041  .00069312  00000+0  65877-3 0  9996
2 46320  97.2467 231.8006 0001229 159.6859 200.4451 15.66650092320134
JILIN-1 GAOFEN 3E       
1 46457U 20065D   26157.91460661  .00064059  00000+0  71721-3 0  9997
2 46457  97.2253 210.2947 0012222 189.6665 170.4360 15.62417748318155
JILIN-1 GAOFEN 3F       
1 46458U 20065E   26157.92223135  .00056466  00000+0  69720-3 0  9991
2 46458  97.2210 207.6856 0013792 179.2715 180.8565 15.59868872318103
JILIN-1 GAOFEN 3G       
1 46459U 20065F   26157.95196636  .00097102  00000+0  81990-3 0  9995
2 46459  97.2283 214.3549 0010430  97.5393 262.7055 15.69406391318332
JILIN-1 GAOFEN 3H       
1 46460U 20065G   26157.90223623  .00076494  00000+0  73573-3 0  9998
2 46460  97.2223 210.6912 0005225  42.3042 317.8621 15.66312346318273
HAIYANG-2C              
1 46469U 20066A   26157.97222698 -.00000062  00000+0  17224-4 0  9997
2 46469  65.9971 240.7166 0009287 238.4710 121.5451 13.83374325288089
HJ-2A                   
1 46478U 20067A   26157.93230500  .00000953  00000+0  14359-3 0  9998
2 46478  97.8824 236.5469 0002337 321.8352  38.2693 14.76600465306743
HJ-2B                   
1 46479U 20067B   26157.90157926  .00000344  00000+0  56516-4 0  9992
2 46479  97.8888 237.5299 0001152  88.4780 271.6562 14.76543516306742
GONETS-M 17             
1 46486U 20068A   26157.90569885  .00000002  00000+0 -55798-4 0  9995
2 46486  82.4991 353.9001 0023391  58.9260 301.4111 12.42872637257885
GONETS-M 18             
1 46487U 20068B   26157.94985425  .00000009  00000+0 -59479-5 0  9990
2 46487  82.4945 352.9944 0020657  55.5074 304.7953 12.42872769257873
