OBJECT_NAME,OBJECT_ID,EPOCH,MEAN_MOTION,ECCENTRICITY,INCLINATION,RA_OF_ASC_NODE,ARG_OF_PERICENTER,MEAN_ANOMALY,EPHEMERIS_TYPE,CLASSIFICATION_TYPE,NORAD_CAT_ID,ELEMENT_SET_NO,REV_AT_EPOCH,BSTAR,MEAN_MOTION_DOT,MEAN_MOTION_DDOT
CBERS 4A,2019-093E,2026-06-06T23:01:22.442592,14.81622780,.00012702,97.7495,225.5225,154.8393,205.2883,0,U,44883,999,34956,.19307514E-3,.1467E-4,0
WEILAI 1R,2019-093F,2026-06-06T22:03:23.906880,15.00554061,.00178516,97.7844,247.7908,66.8371,293.4731,0,U,44884,999,35088,.34762285E-3,.4339E-4,0
FLORIPASAT-1,2019-093G,2026-06-06T07:30:52.081056,15.03766890,.00137514,97.7924,251.4661,104.7159,255.5592,0,U,44885,999,35101,.54133508E-3,.7388E-4,0
SHUNTIAN,2019-093H,2026-06-06T21:38:19.651776,14.95103572,.00129585,97.7999,246.1150,98.6921,261.5768,0,U,44886,999,35064,.21532627E-3,.2306E-4,0
ELEKTRO-L 3,2019-095A,2026-06-06T22:23:16.530144,1.00272728,.00014983,0.2303,81.1560,349.9046,236.0506,0,U,44903,999,2360,0,-.83E-6,0
GONETS-M 14,2019-096A,2026-06-06T21:43:46.713792,12.42869577,.00130498,82.5233,91.0146,170.3269,189.8065,0,U,44905,999,29240,.41785438E-3,.68E-6,0
GONETS-M 15,2019-096B,2026-06-06T22:26:07.800000,12.42871023,.00144572,82.5252,91.4564,194.4387,165.6282,0,U,44906,999,29237,.31921012E-3,.54E-6,0
GONETS-M 16,2019-096C,2026-06-06T21:08:13.058016,12.42891317,.00096241,82.5199,90.4471,239.5482,120.4648,0,U,44907,999,29235,.35259662E-4,.15E-6,0
RS-44 & BREEZE-KM R/B,2019-096E,2026-06-06T18:19:18.010560,12.79748548,.02177064,82.5218,346.6331,168.4833,192.1367,0,U,44909,999,30101,-.3238499E-5,.11E-6,0
JILIN-1 KUANFU 01,2020-003A,2026-06-06T22:51:49.948416,15.10668270,.0009145,97.5025,232.1081,346.7396,13.3592,0,U,45016,999,35378,.240655E-3,.3922E-4,0
XINGYUN-2 01,2020-028A,2026-06-06T22:46:28.046208,15.11764053,.00074223,97.4872,150.5531,233.1386,126.9165,0,U,45602,999,33329,.15263893E-3,.2541E-4,0
XINGYUN-2 02,2020-028B,2026-06-06T22:13:04.810368,15.11497538,.00095497,97.5077,164.0981,315.1221,44.9236,0,U,45603,999,33328,.16584015E-3,.2746E-4,0
HAIYANG-1D,2020-036A,2026-06-06T22:14:25.632384,14.34170175,.00027926,98.4557,99.8302,151.9731,208.1605,0,U,45721,999,31350,.91226515E-4,.213E-5,0
M2 PATHFINDER,2020-037E,2026-06-06T11:21:11.111328,15.04629336,.00114912,97.8157,348.5839,183.0917,177.0240,0,U,45727,999,32388,.24486953E-3,.3381E-4,0
GAOFEN DUOMO (GFDM),2020-042A,2026-06-06T23:26:44.227392,14.76864711,.00123667,97.7745,218.2339,103.4002,256.8588,0,U,45856,999,31950,.69675829E-4,.441E-5,0
ZIYUAN 3-03 (ZY 3-03),2020-051A,2026-06-06T22:11:01.521888,15.21450922,.00042859,97.2832,225.9814,2.3148,357.8108,0,U,45939,999,32578,.25614403E-3,.5689E-4,0
NEMO-HD,2020-061F,2026-06-06T22:59:25.913184,15.44386635,.00026319,97.1920,220.0155,92.1225,268.0325,0,U,46277,999,32040,.26209439E-3,.12021E-3,0
NAPA-1,2020-061BA,2026-06-06T22:44:12.803424,15.66650092,.0001229,97.2467,231.8006,159.6859,200.4451,0,U,46320,999,32013,.65876781E-3,.69312E-3,0
JILIN-1 GAOFEN 3E,2020-065D,2026-06-06T21:57:02.011104,15.62417748,.00122223,97.2253,210.2947,189.6665,170.4360,0,U,46457,999,31815,.71720815E-3,.64059E-3,0
JILIN-1 GAOFEN 3F,2020-065E,2026-06-06T22:08:00.788640,15.59868872,.0013792,97.2210,207.6856,179.2715,180.8565,0,U,46458,999,31810,.69719753E-3,.56466E-3,0
JILIN-1 GAOFEN 3G,2020-065F,2026-06-06T22:50:49.893504,15.69406391,.00104302,97.2283,214.3549,97.5393,262.7055,0,U,46459,999,31833,.81990313E-3,.97102E-3,0
JILIN-1 GAOFEN 3H,2020-065G,2026-06-06T21:39:13.210272,15.66312346,.00052258,97.2223,210.6912,42.3042,317.8621,0,U,46460,999,31827,.73572574E-3,.76494E-3,0
HAIYANG-2C,2020-066A,2026-06-06T23:20:00.411072,13.83374325,.00092871,65.9971,240.7166,238.4710,121.5451,0,U,46469,999,28808,.17223934E-4,-.62E-6,0
HJ-2A,2020-067A,2026-06-06T22:22:31.152000,14.76600465,.0002337,97.8824,236.5469,321.8352,38.2693,0,U,46478,999,30674,.14358778E-3,.953E-5,0
HJ-2B,2020-067B,2026-06-06T21:38:16.448064,14.76543516,.00011528,97.8888,237.5299,88.4780,271.6562,0,U,46479,999,30674,.56516427E-4,.344E-5,0
GONETS-M 17,2020-068A,2026-06-06T21:44:12.380640,12.42872637,.00233917,82.4991,353.9001,58.9260,301.4111,0,U,46486,999,25788,-.55798079E-4,.2E-7,0
GONETS-M 18,2020-068B,2026-06-06T22:47:47.407200,12.42872769,.00206579,82.4945,352.9944,55.5074,304.7953,0,U,46487,999,25787,-.5947881E-5,.9E-7,0
